STARLINK-31454          
1 59014U 24036S   26068.32684986  .00001284  00000+0  55488-4 0  9990
2 59014  53.1592  80.0967 0001314  85.1870 274.9281 15.30194323115263
NUSHSAT1                
1 63211U 25052B   26068.64700493  .00023034  00000+0  74857-3 0  9997
2 63211  97.4095 325.7239 0005501  84.7512 275.4357 15.31903202 54882
