[{"OBJECT_NAME":"STARLINK-31454","OBJECT_ID":"2024-036S","EPOCH":"2026-03-09T07:50:39.827904","MEAN_MOTION":15.30194323,"ECCENTRICITY":0.00013146,"INCLINATION":53.1592,"RA_OF_ASC_NODE":80.0967,"ARG_OF_PERICENTER":85.187,"MEAN_ANOMALY":274.9281,"EPHEMERIS_TYPE":0,"CLASSIFICATION_TYPE":"U","NORAD_CAT_ID":59014,"ELEMENT_SET_NO":999,"REV_AT_EPOCH":11526,"BSTAR":5.5488075e-5,"MEAN_MOTION_DOT":1.284e-5,"MEAN_MOTION_DDOT":0},{"OBJECT_NAME":"NUSHSAT1","OBJECT_ID":"2025-052B","EPOCH":"2026-03-09T15:31:41.225952","MEAN_MOTION":15.31903202,"ECCENTRICITY":0.0005501,"INCLINATION":97.4095,"RA_OF_ASC_NODE":325.7239,"ARG_OF_PERICENTER":84.7512,"MEAN_ANOMALY":275.4357,"EPHEMERIS_TYPE":0,"CLASSIFICATION_TYPE":"U","NORAD_CAT_ID":63211,"ELEMENT_SET_NO":999,"REV_AT_EPOCH":5488,"BSTAR":0.00074857,"MEAN_MOTION_DOT":0.00023034,"MEAN_MOTION_DDOT":0}]
